ISS (ZARYA)             
1 25544U 98067A   26179.67039743  .00005693  00000+0  10963-3 0  9998
2 25544  51.6320 243.2491 0004267 243.5322 116.5229 15.49468267573535
OSCAR 7 (AO-7)          
1 07530U 74089B   26179.96480655 -.00000028  00000+0  11545-3 0  9990
2 07530 101.9899 193.3341 0012644 108.2941   6.1955 12.53698303361994
PHASE 3B (AO-10)        
1 14129U 83058B   26177.59526761 -.00000217  00000+0  00000+0 0  9994
2 14129  25.9202 218.0092 6007622 118.2548 314.1516  2.05872938295688
UOSAT 2 (UO-11)         
1 14781U 84021B   26179.90019892  .00001272  00000+0  13493-3 0  9993
2 14781  97.8064 145.3443 0008606 136.5806 223.6091 14.90811696258878
LUSAT (LO-19)           
1 20442U 90005G   26179.62402342  .00000109  00000+0  55609-4 0  9992
2 20442  98.8846 201.7446 0011782 167.3246 192.8236 14.34126405904036
EYESAT A (AO-27)        
1 22825U 93061C   26179.74707028  .00000085  00000+0  49173-4 0  9998
2 22825  98.6877 247.1562 0009444  69.9517 290.2682 14.30945093708654
ITAMSAT (IO-26)         
1 22826U 93061D   26179.93274172  .00000091  00000+0  51030-4 0  9991
2 22826  98.6824 247.2605 0009801  54.2852 305.9241 14.31372383708991
RADIO ROSTO (RS15)      
1 23439U 94085A   26179.73425208 -.00000046  00000+0 -88474-4 0  9999
2 23439  64.8176 284.5419 0156334   1.7428 358.4010 11.27583385297206
JAS-2 (FO-29)           
1 24278U 96046B   26179.54904671 -.00000019  00000+0  14056-4 0  9999
2 24278  98.5229  26.8641 0350869  67.0358 296.7398 13.53274843474703
TECHSAT 1B (GO-32)      
1 25397U 98043D   26179.93544826  .00000052  00000+0  42491-4 0  9996
2 25397  99.0072 172.9906 0001643 141.4030 218.7265 14.24430601453004
PCSAT (NO-44)           
1 26931U 01043C   26179.54409891  .00000092  00000+0  65165-4 0  9991
2 26931  67.0491 214.8978 0006039 265.3473  94.6939 14.31959587292079
SAUDISAT 1C (SO-50)     
1 27607U 02058C   26179.95586503  .00000880  00000+0  12106-3 0  9991
2 27607  64.5520  92.5735 0074988 260.2770  98.9861 14.83070324266206
CUTE-1 (CO-55)          
1 27844U 03031E   26179.48757997  .00000272  00000+0  13667-3 0  9999
2 27844  98.6736 187.9043 0010221 146.4668 213.7159 14.24342303193286
CUBESAT XI-IV (CO-57)   
1 27848U 03031J   26179.55199356  .00000229  00000+0  11941-3 0  9995
2 27848  98.6768 187.6716 0009707 163.9321 196.2167 14.23626546192990
MOZHAETS 4 (RS22)       
1 27939U 03042A   26179.97883836  .00001410  00000+0  22527-3 0  9992
2 27939  98.3466   4.6711 0010117 227.4532 293.1661 14.73489146217287
CUBESAT XI-V            
1 28895U 05043F   26179.68160511  .00001412  00000+0  22953-3 0  9998
2 28895  98.2995 335.5454 0014446 164.3904 195.7751 14.72661458103442
CUTE-1.7+APD II (CO-65) 
1 32785U 08021C   26179.91553848  .00004670  00000+0  29489-3 0  9995
2 32785  97.8271 161.5787 0008562   1.2386 358.8861 15.09559374986962
SEEDS II (CO-66)        
1 32791U 08021J   26179.95056021  .00017427  00000+0  54621-3 0  9997
2 32791  97.7514 178.4126 0000917 200.7321 159.3883 15.33144634989094
YUBILEINY (RS30)        
1 32953U 08025A   26179.92873647  .00000083  00000+0  52497-3 0  9998
2 32953  82.5041 348.1349 0018523 286.7909  73.1139 12.43180281821157
KKS-1 (KISEKI)          
1 33499U 09002H   26179.86068178  .00001248  00000+0  15977-3 0  9994
2 33499  98.1186 102.4879 0006423 249.5116 110.5407 14.83152106937926
SWISSCUBE               
1 35932U 09051B   26179.73113070  .00000934  00000+0  19406-3 0  9992
2 35932  98.4027  87.8203 0006798 165.5410 194.5986 14.62502262890845
BEESAT-1                
1 35933U 09051C   26179.67813002  .00000785  00000+0  16739-3 0  9998
2 35933  98.3955  87.3776 0004989 176.9996 183.1235 14.61737811890862
ITUPSAT1                
1 35935U 09051E   26179.54206212  .00000711  00000+0  15671-3 0  9998
2 35935  98.4040  86.4193 0006875 194.0038 166.0972 14.60456331890397
XIWANG-1 (HOPE-1)       
1 36122U 09072B   26179.94774691 -.00000336  00000+0 -76245-3 0  9994
2 36122 100.4024 133.5924 0007120 202.6685 157.4115 13.16437947794552
O/OREOS (USA 219)       
1 37224U 10062C   26179.71476083  .00002058  00000+0  19961-3 0  9991
2 37224  71.9712  54.2272 0013001  38.4186 321.7908 14.93790940118369
JUGNU                   
1 37839U 11058B   26179.53360106  .00000403  00000+0  70931-4 0  9994
2 37839  19.9595 239.4959 0018412 201.2516 297.0567 14.13779476760631
SRMSAT                  
1 37841U 11058D   26179.80720552  .00000372  00000+0  58225-4 0  9999
2 37841  19.9735 349.1375 0011749 332.2433  55.7265 14.11577875759460
STRAND-1                
1 39090U 13009E   26179.75244648  .00000274  00000+0  10650-3 0  9996
2 39090  98.3924 359.7023 0008379 188.3132 171.7918 14.37169921698729
ZACUBE-1 (TSHEPISOSAT)  
1 39417U 13066B   26179.93847879  .00002723  00000+0  21285-3 0  9994
2 39417  97.8045 142.3355 0042448 207.8298 152.0656 15.01250622682498
GOMX-1                  
1 39430U 13066Q   26179.82972443  .00001745  00000+0  26623-3 0  9997
2 39430  97.6480  19.5579 0129666  40.5883 320.4903 14.69499060671620
